TIROS N                 
1 11060U 78096A   24117.58657695  .00000526  00000+0  27320-3 0  9993
2 11060  98.5372 159.8960 0010180 351.5406   8.5598 14.18784224567897
NOAA 6                  
1 11416U 79057A   24117.56719469  .00001046  00000+0  38672-3 0  9992
2 11416  98.6328 138.8458 0011028  57.8076 302.4177 14.34454866338859
NOAA 7                  
1 12553U 81059A   24117.59462369  .00000232  00000+0  13632-3 0  9992
2 12553  98.8974 176.8591 0011125 347.0151  13.0736 14.17511403214005
NOAA 8                  
1 13923U 83022A   24117.54839301  .00000601  00000+0  25407-3 0  9998
2 13923  98.7306 117.4205 0015488  28.3716 331.8306 14.29211386139392
NOAA 9                  
1 15427U 84123A   24117.62140552  .00000529  00000+0  28866-3 0  9995
2 15427  99.1180 113.7969 0015548  45.1911  64.1172 14.16563837 32740
NOAA 10                 
1 16969U 86073A   24117.59852274  .00000572  00000+0  24510-3 0  9990
2 16969  98.6392 104.0235 0013130 120.3420 352.8549 14.28585088957786
NOAA 11                 
1 19531U 88089A   24117.47553291  .00000299  00000+0  17423-3 0  9992
2 19531  98.5142  82.3335 0011678  28.8810 331.3009 14.15517888836873
NOAA 12                 
1 21263U 91032A   24117.57486887  .00000407  00000+0  18741-3 0  9991
2 21263  98.5568 109.8607 0014281 148.5549 211.6488 14.26287273713520
NOAA 13                 
1 22739U 93050A   24117.60220132  .00000481  00000+0  27946-3 0  9994
2 22739  98.6021  77.0798 0009020 194.7347 165.3564 14.13186907582965
NOAA 14                 
1 23455U 94089A   24117.59067158  .00000242  00000+0  14788-3 0  9993
2 23455  98.4324 116.4591 0009759 163.9926 196.1558 14.14378363512704
NOAA 15                 
1 25338U 98030A   24117.61535563  .00000594  00000+0  26407-3 0  9999
2 25338  98.5733 145.8096 0011497 113.6781 246.5607 14.26550350349838
NOAA 16                 
1 26536U 00055A   24117.55354427  .00000315  00000+0  18934-3 0  9998
2 26536  98.5366 159.4996 0010924  30.0491 330.1307 14.13560563513287
NOAA 17                 
1 27453U 02032A   24117.55147184  .00000567  00000+0  25826-3 0  9991
2 27453  98.7592  68.1836 0012867  97.6193 262.6448 14.25546305135594
NOAA 18                 
1 28654U 05018A   24117.52377255  .00000547  00000+0  31586-3 0  9991
2 28654  98.8749 194.9165 0013955 205.5232 154.5252 14.13182347975873
NOAA 19                 
1 33591U 09005A   24117.60961448  .00000505  00000+0  29524-3 0  9992
2 33591  99.0515 172.8539 0014820  79.4673 280.8167 14.12982207784083
SUOMI NPP               
1 37849U 11061A   24117.58941332  .00000342  00000+0  18311-3 0  9995
2 37849  98.7194  56.3512 0001706  77.6655 282.4712 14.19555441647555
NOAA 20 (JPSS-1)        
1 43013U 17073A   24117.53711916  .00000293  00000+0  15943-3 0  9995
2 43013  98.7037  56.3309 0001616  48.7655 311.3661 14.19570809333578
NOAA 21 (JPSS-2)        
1 54234U 22150A   24117.57080156  .00000388  00000+0  20461-3 0  9999
2 54234  98.7490  56.0772 0000722  65.2474 294.8777 14.19555939 75651
ISS (ZARYA)             
1 25544U 98067A   24117.53738796  .00103062  00000+0  17520-2 0  9991
2 25544  51.6386 211.5062 0003839 117.4232 336.8183 15.50605469450531
CSS (TIANHE)            
1 48274U 21035A   24117.16233996  .00050859  00000+0  55240-3 0  9995
2 48274  41.4690  40.8827 0004294 269.1016  90.9332 15.62627011170953
ISS (NAUKA)             
1 49044U 21066A   24117.52054144  .00032954  00000+0  57094-3 0  9996
2 49044  51.6376 211.5921 0003669 112.2219 247.9159 15.50587577450224
FREGAT DEB              
1 49271U 11037PF  24117.23276409  .00023436  00000+0  58049-1 0  9997
2 49271  51.6609 136.7430 0956546  11.5764 350.5492 12.13750226128889
CSS (WENTIAN)           
1 53239U 22085A   24117.16233996  .00050859  00000+0  55240-3 0  9998
2 53239  41.4690  40.8827 0004294 269.1016  90.9332 15.62627011100234
CSS (MENGTIAN)          
1 54216U 22143A   24117.16233996  .00050859  00000+0  55240-3 0  9999
2 54216  41.4690  40.8827 0004294 269.1016  90.9332 15.62627011 84714
ISS DEB [SPX-28 IPA FSE]
1 57212U 98067VP  24117.46785077  .00334593  54458-4  90362-3 0  9996
2 57212  51.6223 178.7806 0006476   2.3881 357.7156 15.93747143 47908
SHENZHOU-17 (SZ-17)     
1 58146U 23164A   24117.16233996  .00050859  00000+0  55240-3 0  9999
2 58146  41.4690  40.8827 0004294 269.1016  90.9332 15.62627011 28505
ISS DEB                 
1 58229U 98067WC  24117.40972859  .00183726  00000+0  11497-2 0  9995
2 58229  51.6307 198.8389 0006564 351.9459   8.1434 15.75712298 27470
PROGRESS-MS 25          
1 58460U 23184A   24117.52054144  .00032954  00000+0  57094-3 0  9991
2 58460  51.6376 211.5921 0003669 112.2219 247.9159 15.50587577450226
BEAK                    
1 58612U 98067WD  24117.52599106  .00200133  00000+0  14081-2 0  9998
2 58612  51.6322 201.8851 0005420 356.7322   3.3640 15.72955752 20395
TIANZHOU-7              
1 58811U 24013A   24117.16233996  .00050859  00000+0  55240-3 0  9992
2 58811  41.4690  40.8827 0004294 269.1016  90.9332 15.62627011170805
CYGNUS NG-20            
1 58898U 24021A   24117.52054144  .00032954  00000+0  57094-3 0  9997
2 58898  51.6376 211.5921 0003669 112.2219 247.9159 15.50587577 13327
PROGRESS-MS 26          
1 58961U 24029A   24117.52054144  .00032954  00000+0  57094-3 0  9996
2 58961  51.6376 211.5921 0003669 112.2219 247.9159 15.50587577450222
CREW DRAGON 8           
1 59097U 24042A   24117.52054144  .00032954  00000+0  57094-3 0  9992
2 59097  51.6376 211.5921 0003669 112.2219 247.9159 15.50587577450223
DRAGON CRS-30           
1 59287U 24054A   24117.52054144  .00032954  00000+0  57094-3 0  9996
2 59287  51.6376 211.5921 0003669 112.2219 247.9159 15.50587577450538
SOYUZ-MS 25             
1 59294U 24055A   24117.52054144  .00032954  00000+0  57094-3 0  9995
2 59294  51.6376 211.5921 0003669 112.2219 247.9159 15.50587577450536
MICROORBITER-1          
1 59483U 98067WF  24117.50290048  .00120138  00000+0  17979-2 0  9991
2 59483  51.6366 211.4750 0002509  78.3002 281.8270 15.54078618  2414
CURTIS                  
1 59507U 98067WG  24117.50433675  .00089783  00000+0  13773-2 0  9991
2 59507  51.6359 211.4837 0001457  86.3590 273.7567 15.53541057  2422
KASHIWA                 
1 59508U 98067WH  24117.56679661  .00138191  00000+0  20491-2 0  9998
2 59508  51.6360 211.1504 0002408  75.7634 284.3624 15.54254637  2430
1998-067WJ              
1 59559U 98067WJ  24117.51389289  .00094311  00000+0  14886-2 0  9999
2 59559  51.6376 211.5475 0004203  36.5958 323.5318 15.52723000  1295
1998-067WK              
1 59560U 98067WK  24117.51670125  .00148818  00000+0  22631-2 0  9992
2 59560  51.6425 211.4991 0007572  36.4098 348.8359 15.53491936  1218
1998-067WL              
1 59561U 98067WL  24117.58110703  .00050964  00000+0  83923-3 0  9997
2 59561  51.6406 211.2411 0002377  88.8189 271.3186 15.51817835  1275
1998-067WM              
1 59562U 98067WM  24117.57923543  .00101523  00000+0  16085-2 0  9993
2 59562  51.6400 211.2298 0002651 104.2351 255.9045 15.52587816  1289
1998-067WN              
1 59563U 98067WN  24117.58006490  .00092395  00000+0  14800-2 0  9997
2 59563  51.6423 211.2375 0002447 101.9150 258.2599 15.52328695  1272
SHENZHOU-18             
1 59591U 24078A   24117.16233996  .00050859  00000+0  55240-3 0  9999
2 59591  41.4690  40.8827 0004294 269.1016  90.9332 15.62627011170957
2024-078B               
1 59592U 24078B   24117.46148043  .00910605  75889-5  68831-3 0  9998
2 59592  41.4690  38.7584 0100928 131.3230 230.5988 16.03804335   158
2024-078C               
1 59593U 24078C   24117.16437429  .06643541  69424-5  71055-2 0  9992
2 59593  41.6118  40.5394 0251395 137.5527 224.6445 15.69435837   103
2024-078D               
1 59594U 24078D   24117.48013544  .08483376  68819-5  73850-2 0  9998
2 59594  41.5696  38.6918 0223885 143.4243 218.4447 15.77673603   127
2024-078E               
1 59595U 24078E   24117.47648204  .09647282  69657-5  81117-2 0  9990
2 59595  41.3004  39.2976 0191086 122.2360 239.8369 15.84993051   155
